start=new Date('2022-11-29T00:00:00.000Z').valueOf();
sats=[{"OBJECT_NAME":"STARLINK-2600","COUNTRY_CODE":"US","ELEMENT_SET_NO":"999","MEAN_MOTION":"15.06392363","DECAY_DATE":null,"CENTER_NAME":"EARTH","MEAN_MOTION_DDOT":"0.0000000000000","GP_ID":"219008649","ECCENTRICITY":"0.00019060","APOAPSIS":"548.557","RA_OF_ASC_NODE":"320.0992","SITE":"AFETR","EPOCH":"2022-11-28T16:47:46.588992","RCS_SIZE":"MEDIUM","PERIOD":"95.593","TIME_SYSTEM":"UTC","CLASSIFICATION_TYPE":"U","FILE":"3672603","ARG_OF_PERICENTER":"49.5564","MEAN_ANOMALY":"310.5591","MEAN_ELEMENT_THEORY":"SGP4","MEAN_MOTION_DOT":"-0.00000002","EPHEMERIS_TYPE":"0","LAUNCH_DATE":"2021-05-04","OBJECT_TYPE":"PAYLOAD","REF_FRAME":"TEME","TLE_LINE2":"2 48387  53.0549 320.0992 0001906  49.5564 310.5591 15.06392363 87414","TLE_LINE1":"1 48387U 21038AL  22332.69984478 -.00000002  00000-0  18771-4 0  9992","NORAD_CAT_ID":"48387","INCLINATION":"53.0549","PERIAPSIS":"545.917","REV_AT_EPOCH":"8741","OBJECT_ID":"2021-038AL","BSTAR":"0.00001877100000","SEMIMAJOR_AXIS":"6925.372"},{"MEAN_ANOMALY":"293.4129","MEAN_ELEMENT_THEORY":"SGP4","MEAN_MOTION_DOT":"0.00002166","FILE":"3672604","ARG_OF_PERICENTER":"66.7043","CLASSIFICATION_TYPE":"U","REF_FRAME":"TEME","TLE_LINE2":"2 48388  53.0553 320.1406 0001744  66.7043 293.4129 15.06403950 87415","OBJECT_TYPE":"PAYLOAD","EPHEMERIS_TYPE":"0","LAUNCH_DATE":"2021-05-04","SEMIMAJOR_AXIS":"6925.336","OBJECT_ID":"2021-038AM","BSTAR":"0.00016422000000","REV_AT_EPOCH":"8741","PERIAPSIS":"545.994","INCLINATION":"53.0553","TLE_LINE1":"1 48388U 21038AM  22332.69615480  .00002166  00000-0  16422-3 0  9999","NORAD_CAT_ID":"48388","COUNTRY_CODE":"US","OBJECT_NAME":"STARLINK-2594","DECAY_DATE":null,"ELEMENT_SET_NO":"999","MEAN_MOTION":"15.06403950","GP_ID":"219008360","MEAN_MOTION_DDOT":"0.0000000000000","CENTER_NAME":"EARTH","PERIOD":"95.592","TIME_SYSTEM":"UTC","RCS_SIZE":"LARGE","SITE":"AFETR","EPOCH":"2022-11-28T16:42:27.774720","ECCENTRICITY":"0.00017440","RA_OF_ASC_NODE":"320.1406","APOAPSIS":"548.409"},{"CENTER_NAME":"EARTH","GP_ID":"219008661","MEAN_MOTION_DDOT":"0.0000000000000","RCS_SIZE":"LARGE","TIME_SYSTEM":"UTC","PERIOD":"95.592","ECCENTRICITY":"0.00018120","RA_OF_ASC_NODE":"315.1953","APOAPSIS":"548.484","SITE":"AFETR","EPOCH":"2022-11-28T16:23:11.952672","COUNTRY_CODE":"US","OBJECT_NAME":"STARLINK-1904","DECAY_DATE":null,"ELEMENT_SET_NO":"999","MEAN_MOTION":"15.06394878","REF_FRAME":"TEME","TLE_LINE2":"2 48389  53.0547 315.1953 0001812  60.7892 299.3278 15.06394878 87476","EPHEMERIS_TYPE":"0","LAUNCH_DATE":"2021-05-04","OBJECT_TYPE":"PAYLOAD","OBJECT_ID":"2021-038AN","BSTAR":"-0.00007364900000","SEMIMAJOR_AXIS":"6925.364","TLE_LINE1":"1 48389U 21038AN  22332.68277723 -.00001378  00000-0 -73649-4 0  9994","NORAD_CAT_ID":"48389","INCLINATION":"53.0547","PERIAPSIS":"545.974","REV_AT_EPOCH":"8747","MEAN_ANOMALY":"299.3278","MEAN_ELEMENT_THEORY":"SGP4","MEAN_MOTION_DOT":"-0.00001378","CLASSIFICATION_TYPE":"U","FILE":"3672604","ARG_OF_PERICENTER":"60.7892"},{"PERIOD":"95.593","TIME_SYSTEM":"UTC","RCS_SIZE":"LARGE","SITE":"AFETR","EPOCH":"2022-11-28T16:19:15.004992","ECCENTRICITY":"0.00018470","APOAPSIS":"548.512","RA_OF_ASC_NODE":"315.2135","MEAN_MOTION_DDOT":"0.0000000000000","GP_ID":"219008368","CENTER_NAME":"EARTH","DECAY_DATE":null,"ELEMENT_SET_NO":"999","MEAN_MOTION":"15.06393657","COUNTRY_CODE":"US","OBJECT_NAME":"STARLINK-2586","SEMIMAJOR_AXIS":"6925.368","OBJECT_ID":"2021-038AP","BSTAR":"0.00008694400000","REV_AT_EPOCH":"8747","PERIAPSIS":"545.954","INCLINATION":"53.0560","TLE_LINE1":"1 48390U 21038AP  22332.68003478  .00001013  00000-0  86944-4 0  9996","NORAD_CAT_ID":"48390","REF_FRAME":"TEME","TLE_LINE2":"2 48390  53.0560 315.2135 0001847  57.3721 302.7446 15.06393657 87477","OBJECT_TYPE":"PAYLOAD","EPHEMERIS_TYPE":"0","LAUNCH_DATE":"2021-05-04","MEAN_ELEMENT_THEORY":"SGP4","MEAN_ANOMALY":"302.7446","MEAN_MOTION_DOT":"0.00001013","FILE":"3672605","ARG_OF_PERICENTER":"57.3721","CLASSIFICATION_TYPE":"U"},{"MEAN_ELEMENT_THEORY":"SGP4","MEAN_ANOMALY":"307.5407","MEAN_MOTION_DOT":"-0.00001427","FILE":"3672606","ARG_OF_PERICENTER":"52.5737","CLASSIFICATION_TYPE":"U","REF_FRAME":"TEME","TLE_LINE2":"2 48391  53.0542 315.2336 0001707  52.5737 307.5407 15.06392374 87464","OBJECT_TYPE":"PAYLOAD","EPHEMERIS_TYPE":"0","LAUNCH_DATE":"2021-05-04","SEMIMAJOR_AXIS":"6925.372","OBJECT_ID":"2021-038AQ","BSTAR":"-0.00007694500000","INCLINATION":"53.0542","PERIAPSIS":"546.055","REV_AT_EPOCH":"8746","TLE_LINE1":"1 48391U 21038AQ  22332.67634463 -.00001427  00000-0 -76945-4 0  9991","NORAD_CAT_ID":"48391","COUNTRY_CODE":"US","OBJECT_NAME":"STARLINK-2607","DECAY_DATE":null,"ELEMENT_SET_NO":"999","MEAN_MOTION":"15.06392374","MEAN_MOTION_DDOT":"0.0000000000000","GP_ID":"219008701","CENTER_NAME":"EARTH","TIME_SYSTEM":"UTC","PERIOD":"95.593","RCS_SIZE":"LARGE","SITE":"AFETR","EPOCH":"2022-11-28T16:13:56.176032","ECCENTRICITY":"0.00017070","RA_OF_ASC_NODE":"315.2336","APOAPSIS":"548.419"},{"ARG_OF_PERICENTER":"83.8716","FILE":"3672606","CLASSIFICATION_TYPE":"U","MEAN_MOTION_DOT":"0.00000872","MEAN_ANOMALY":"276.2423","MEAN_ELEMENT_THEORY":"SGP4","OBJECT_TYPE":"PAYLOAD","LAUNCH_DATE":"2021-05-04","EPHEMERIS_TYPE":"0","REF_FRAME":"TEME","TLE_LINE2":"2 48392  53.0539 316.1327 0001323  83.8716 276.2423 15.06394795 87446","REV_AT_EPOCH":"8744","PERIAPSIS":"546.313","INCLINATION":"53.0539","NORAD_CAT_ID":"48392","TLE_LINE1":"1 48392U 21038AR  22332.47362125  .00000872  00000-0  77451-4 0  9997","SEMIMAJOR_AXIS":"6925.365","BSTAR":"0.00007745100000","OBJECT_ID":"2021-038AR","OBJECT_NAME":"STARLINK-2605","COUNTRY_CODE":"US","MEAN_MOTION":"15.06394795","ELEMENT_SET_NO":"999","DECAY_DATE":null,"GP_ID":"219008396","MEAN_MOTION_DDOT":"0.0000000000000","CENTER_NAME":"EARTH","EPOCH":"2022-11-28T11:22:00.876000","SITE":"AFETR","RA_OF_ASC_NODE":"316.1327","APOAPSIS":"548.146","ECCENTRICITY":"0.00013230","TIME_SYSTEM":"UTC","PERIOD":"95.592","RCS_SIZE":"LARGE"},{"DECAY_DATE":null,"MEAN_MOTION":"15.06401108","ELEMENT_SET_NO":"999","COUNTRY_CODE":"US","OBJECT_NAME":"STARLINK-2602","TIME_SYSTEM":"UTC","PERIOD":"95.592","RCS_SIZE":"LARGE","EPOCH":"2022-11-28T08:05:37.426272","SITE":"AFETR","RA_OF_ASC_NODE":"316.7412","APOAPSIS":"548.660","ECCENTRICITY":"0.00020930","MEAN_MOTION_DDOT":"0.0000000000000","GP_ID":"219003862","CENTER_NAME":"EARTH","MEAN_MOTION_DOT":"-0.00000050","MEAN_ELEMENT_THEORY":"SGP4","MEAN_ANOMALY":"310.1548","ARG_OF_PERICENTER":"49.9624","FILE":"3672364","CLASSIFICATION_TYPE":"U","SEMIMAJOR_AXIS":"6925.345","BSTAR":"0.00001554600000","OBJECT_ID":"2021-038AS","PERIAPSIS":"545.761","REV_AT_EPOCH":"8742","INCLINATION":"53.0554","NORAD_CAT_ID":"48393","TLE_LINE1":"1 48393U 21038AS  22332.33723873 -.00000050  00000-0  15546-4 0  9990","REF_FRAME":"TEME","TLE_LINE2":"2 48393  53.0554 316.7412 0002093  49.9624 310.1548 15.06401108 87422","OBJECT_TYPE":"PAYLOAD","LAUNCH_DATE":"2021-05-04","EPHEMERIS_TYPE":"0"},{"EPOCH":"2022-11-27T16:04:55.281792","SITE":"AFETR","APOAPSIS":"548.494","RA_OF_ASC_NODE":"319.7418","ECCENTRICITY":"0.00018300","TIME_SYSTEM":"UTC","PERIOD":"95.592","RCS_SIZE":"LARGE","GP_ID":"218997767","MEAN_MOTION_DDOT":"0.0000000000000","CENTER_NAME":"EARTH","MEAN_MOTION":"15.06395781","ELEMENT_SET_NO":"999","DECAY_DATE":null,"OBJECT_NAME":"STARLINK-2573","COUNTRY_CODE":"US","INCLINATION":"53.0529","PERIAPSIS":"545.959","REV_AT_EPOCH":"8732","NORAD_CAT_ID":"48394","TLE_LINE1":"1 48394U 21038AT  22331.67008428 -.00000139  00000-0  96030-5 0  9995","SEMIMAJOR_AXIS":"6925.361","BSTAR":"0.00000960300000","OBJECT_ID":"2021-038AT","OBJECT_TYPE":"PAYLOAD","LAUNCH_DATE":"2021-05-04","EPHEMERIS_TYPE":"0","TLE_LINE2":"2 48394  53.0529 319.7418 0001830  55.0635 305.0526 15.06395781 87329","REF_FRAME":"TEME","ARG_OF_PERICENTER":"55.0635","FILE":"3672071","CLASSIFICATION_TYPE":"U","MEAN_MOTION_DOT":"-0.00000139","MEAN_ELEMENT_THEORY":"SGP4","MEAN_ANOMALY":"305.0526"},{"ELEMENT_SET_NO":"999","MEAN_MOTION":"15.06401344","DECAY_DATE":null,"OBJECT_NAME":"STARLINK-2574","COUNTRY_CODE":"US","SITE":"AFETR","EPOCH":"2022-11-28T09:04:07.002048","ECCENTRICITY":"0.00017170","RA_OF_ASC_NODE":"317.1915","APOAPSIS":"548.399","TIME_SYSTEM":"UTC","PERIOD":"95.592","RCS_SIZE":"LARGE","MEAN_MOTION_DDOT":"0.0000000000000","GP_ID":"219008725","CENTER_NAME":"EARTH","FILE":"3672608","ARG_OF_PERICENTER":"63.0413","CLASSIFICATION_TYPE":"U","MEAN_ELEMENT_THEORY":"SGP4","MEAN_ANOMALY":"297.0751","MEAN_MOTION_DOT":"0.00000853","PERIAPSIS":"546.020","REV_AT_EPOCH":"8742","INCLINATION":"53.0544","TLE_LINE1":"1 48395U 21038AU  22332.37785882  .00000853  00000-0  76161-4 0  9994","NORAD_CAT_ID":"48395","SEMIMAJOR_AXIS":"6925.344","OBJECT_ID":"2021-038AU","BSTAR":"0.00007616100000","OBJECT_TYPE":"PAYLOAD","EPHEMERIS_TYPE":"0","LAUNCH_DATE":"2021-05-04","REF_FRAME":"TEME","TLE_LINE2":"2 48395  53.0544 317.1915 0001717  63.0413 297.0751 15.06401344 87422"},{"COUNTRY_CODE":"US","OBJECT_NAME":"STARLINK-2575","DECAY_DATE":null,"ELEMENT_SET_NO":"999","MEAN_MOTION":"15.06399314","CENTER_NAME":"EARTH","MEAN_MOTION_DDOT":"0.0000000000000","GP_ID":"219003866","RCS_SIZE":"LARGE","PERIOD":"95.592","TIME_SYSTEM":"UTC","ECCENTRICITY":"0.00016950","APOAPSIS":"548.390","RA_OF_ASC_NODE":"316.4893","SITE":"AFETR","EPOCH":"2022-11-28T09:30:32.574240","MEAN_ANOMALY":"293.7587","MEAN_ELEMENT_THEORY":"SGP4","MEAN_MOTION_DOT":"0.00000084","CLASSIFICATION_TYPE":"U","FILE":"3672365","ARG_OF_PERICENTER":"66.3580","TLE_LINE2":"2 48396  53.0552 316.4893 0001695  66.3580 293.7587 15.06399314 87439","REF_FRAME":"TEME","EPHEMERIS_TYPE":"0","LAUNCH_DATE":"2021-05-04","OBJECT_TYPE":"PAYLOAD","OBJECT_ID":"2021-038AV","BSTAR":"0.00002453000000","SEMIMAJOR_AXIS":"6925.351","TLE_LINE1":"1 48396U 21038AV  22332.39621035  .00000084  00000-0  24530-4 0  9995","NORAD_CAT_ID":"48396","PERIAPSIS":"546.042","INCLINATION":"53.0552","REV_AT_EPOCH":"8743"}];
